ONEWEB-0697             
1 61603U 24188K   24330.02262252  .00003662  00000+0  44843-3 0  9994
2 61603  86.5707 155.1296 0004257 109.6939 250.4744 14.82933159  8273
ONEWEB-0698             
1 61604U 24188L   24330.00860013  .00002252  00000+0  27411-3 0  9998
2 61604  86.5783 155.1353 0007303  95.8352 264.3704 14.82976300  8277
ONEWEB-0699             
1 61605U 24188M   24330.91668981 -.00941428  00000+0 -24269+0 0  9992
2 61605  86.8126 155.1140 0003430 104.3960 279.5088 14.53177745  4389
ONEWEB-0700             
1 61606U 24188N   24331.16668981 -.01129724  00000+0 -30090+0 0  9998
2 61606  86.8229 155.0022 0003406  93.1885 188.4954 14.51707561  6606
ONEWEB-0701             
1 61607U 24188P   24331.16668981 -.00680754  00000+0 -17658+0 0  9998
2 61607  86.8202 154.9962 0006110  85.3168 270.5827 14.52425316  6744
ONEWEB-0702             
1 61608U 24188Q   24330.01358408 -.00002618  00000+0 -32882-3 0  9999
2 61608  86.5858 155.1489 0006539  90.7465 269.4507 14.82642032  8272
ONEWEB-0704             
1 61609U 24188R   24331.16668981 -.01058501  00000+0 -28472+0 0  9996
2 61609  86.8249 155.0393 0004031 110.2155 105.6800 14.51556659  6564
ONEWEB-0705             
1 61610U 24188S   24330.91668981 -.01022266  00000+0 -25595+0 0  9992
2 61610  86.8035 155.0522 0006675  95.3986 127.4689 14.54771137  4348
